[{"OBJECT_NAME":"TIANMU-1 08","OBJECT_ID":"2023-101B","EPOCH":"2026-03-07T00:03:25.475616","MEAN_MOTION":15.29204229,"ECCENTRICITY":0.00063808,"INCLINATION":97.2717,"RA_OF_ASC_NODE":118.7901,"ARG_OF_PERICENTER":134.2174,"MEAN_ANOMALY":225.9592,"EPHEMERIS_TYPE":0,"CLASSIFICATION_TYPE":"U","NORAD_CAT_ID":57400,"ELEMENT_SET_NO":999,"REV_AT_EPOCH":14602,"BSTAR":1.4774513e-5,"MEAN_MOTION_DOT":3.46e-6,"MEAN_MOTION_DDOT":0},{"OBJECT_NAME":"STARLINK-32851","OBJECT_ID":"2025-018E","EPOCH":"2026-03-09T21:56:32.024256","MEAN_MOTION":15.30198638,"ECCENTRICITY":0.00011999,"INCLINATION":53.1622,"RA_OF_ASC_NODE":308.4855,"ARG_OF_PERICENTER":102.3095,"MEAN_ANOMALY":257.804,"EPHEMERIS_TYPE":0,"CLASSIFICATION_TYPE":"U","NORAD_CAT_ID":62810,"ELEMENT_SET_NO":999,"REV_AT_EPOCH":6320,"BSTAR":0.00080600521,"MEAN_MOTION_DOT":0.00023587,"MEAN_MOTION_DDOT":0}]
